{
  "norad_id": 68062,
  "name": "STARLINK-36952",
  "history": [
    {
      "epoch": "2026-03-28T20:22:22.423296Z",
      "apogee_km": 343.9760782724388,
      "perigee_km": 342.8874529951581,
      "latitude_deg": 4.2685732528129675e-05,
      "longitude_deg": -165.35981958876002,
      "height_km": 344.859604322083,
      "semi_major_axis_km": 6721.568765633799,
      "eccentricity": 8.098e-05,
      "inclination_deg": 53.16,
      "raan_deg": 326.497,
      "arg_perigee_deg": 159.8291,
      "mean_anomaly_deg": 200.2762,
      "mean_motion_rev_day": 15.7542159
    },
    {
      "epoch": "2026-03-29T00:56:27.442464Z",
      "apogee_km": 344.6066656380344,
      "perigee_km": 342.9396319211364,
      "latitude_deg": -1.3479392508295935e-06,
      "longitude_deg": 124.9849307742828,
      "height_km": 344.39258434790474,
      "semi_major_axis_km": 6721.910148779585,
      "eccentricity": 0.000124,
      "inclination_deg": 53.1597,
      "raan_deg": 325.5503,
      "arg_perigee_deg": 69.1786,
      "mean_anomaly_deg": 290.9367,
      "mean_motion_rev_day": 15.75301576
    },
    {
      "epoch": "2026-03-30T02:49:37.117344Z",
      "apogee_km": 344.1623301403106,
      "perigee_km": 343.5277750345467,
      "latitude_deg": 1.6139806551577609e-06,
      "longitude_deg": 90.26952050659843,
      "height_km": 344.66915545779955,
      "semi_major_axis_km": 6721.982052587428,
      "eccentricity": 4.72e-05,
      "inclination_deg": 53.1591,
      "raan_deg": 320.1883,
      "arg_perigee_deg": 73.0582,
      "mean_anomaly_deg": 287.049,
      "mean_motion_rev_day": 15.752763
    },
    {
      "epoch": "2026-03-30T05:52:20.927424Z",
      "apogee_km": 344.5243851504929,
      "perigee_km": 343.15175784089206,
      "latitude_deg": -3.1708728154400784e-05,
      "longitude_deg": 43.834279472754254,
      "height_km": 344.2147194178652,
      "semi_major_axis_km": 6721.975071495692,
      "eccentricity": 0.0001021,
      "inclination_deg": 53.1596,
      "raan_deg": 319.5607,
      "arg_perigee_deg": 38.145,
      "mean_anomaly_deg": 321.9642,
      "mean_motion_rev_day": 15.75278754
    },
    {
      "epoch": "2026-03-30T22:37:18.826464Z",
      "apogee_km": 346.22107678889915,
      "perigee_km": 341.21302664620816,
      "latitude_deg": -3.370668386220059e-05,
      "longitude_deg": 148.43575870108845,
      "height_km": 347.12071382462625,
      "semi_major_axis_km": 6721.854051717553,
      "eccentricity": 0.00037252,
      "inclination_deg": 53.1588,
      "raan_deg": 316.0913,
      "arg_perigee_deg": 173.3427,
      "mean_anomaly_deg": 186.7643,
      "mean_motion_rev_day": 15.75321296
    },
    {
      "epoch": "2026-03-31T21:27:45.976896Z",
      "apogee_km": 344.6801284934727,
      "perigee_km": 341.9754110701115,
      "latitude_deg": -7.3062298795263455e-06,
      "longitude_deg": 160.1543114818752,
      "height_km": 344.9952126159002,
      "semi_major_axis_km": 6721.464769781792,
      "eccentricity": 0.0002012,
      "inclination_deg": 53.1578,
      "raan_deg": 311.361,
      "arg_perigee_deg": 123.8151,
      "mean_anomaly_deg": 236.3061,
      "mean_motion_rev_day": 15.75458153
    },
    {
      "epoch": "2026-04-01T03:33:12.550752Z",
      "apogee_km": 344.0829396354429,
      "perigee_km": 343.16555366050034,
      "latitude_deg": 1.5399522567591187e-06,
      "longitude_deg": 67.28215722834437,
      "height_km": 344.37217373263667,
      "semi_major_axis_km": 6721.761246647971,
      "eccentricity": 6.824e-05,
      "inclination_deg": 53.1579,
      "raan_deg": 310.0997,
      "arg_perigee_deg": 68.475,
      "mean_anomaly_deg": 291.6343,
      "mean_motion_rev_day": 15.75353921
    },
    {
      "epoch": "2026-04-02T20:39:58.399776Z",
      "apogee_km": 344.4450761206772,
      "perigee_km": 341.91920438777015,
      "latitude_deg": -4.2506663552927587e-05,
      "longitude_deg": 160.38774839828636,
      "height_km": 344.6564189685301,
      "semi_major_axis_km": 6721.319140254223,
      "eccentricity": 0.0001879,
      "inclination_deg": 53.1571,
      "raan_deg": 301.5848,
      "arg_perigee_deg": 116.2969,
      "mean_anomaly_deg": 243.8244,
      "mean_motion_rev_day": 15.75509356
    },
    {
      "epoch": "2026-04-02T20:39:58.400640Z",
      "apogee_km": 344.44534497344284,
      "perigee_km": 341.9189355350045,
      "latitude_deg": -4.581825425366762e-05,
      "longitude_deg": 160.38774232113033,
      "height_km": 344.6565380746992,
      "semi_major_axis_km": 6721.319140254223,
      "eccentricity": 0.00018794,
      "inclination_deg": 53.1571,
      "raan_deg": 301.5848,
      "arg_perigee_deg": 116.2969,
      "mean_anomaly_deg": 243.8244,
      "mean_motion_rev_day": 15.75509356
    },
    {
      "epoch": "2026-04-03T19:30:26.715744Z",
      "apogee_km": 344.9747926823102,
      "perigee_km": 342.9890787486993,
      "latitude_deg": -2.302525983549343e-05,
      "longitude_deg": 172.10162504308187,
      "height_km": 344.2563228639531,
      "semi_major_axis_km": 6722.118935715504,
      "eccentricity": 0.0001477,
      "inclination_deg": 53.157,
      "raan_deg": 296.8547,
      "arg_perigee_deg": 49.7843,
      "mean_anomaly_deg": 310.3306,
      "mean_motion_rev_day": 15.75228184
    },
    {
      "epoch": "2026-04-04T18:20:52.173600Z",
      "apogee_km": 344.5836688422769,
      "perigee_km": 343.5013979374007,
      "latitude_deg": -4.29484711826177e-05,
      "longitude_deg": -176.17308704258508,
      "height_km": 345.06879717286904,
      "semi_major_axis_km": 6722.179533389839,
      "eccentricity": 8.05e-05,
      "inclination_deg": 53.1565,
      "raan_deg": 292.1241,
      "arg_perigee_deg": 101.7769,
      "mean_anomaly_deg": 258.3341,
      "mean_motion_rev_day": 15.75206884
    },
    {
      "epoch": "2026-04-04T18:20:52.174464Z",
      "apogee_km": 344.5837360640735,
      "perigee_km": 343.50133071560595,
      "latitude_deg": -4.3852133456260636e-05,
      "longitude_deg": -176.1730913257304,
      "height_km": 345.06881089277243,
      "semi_major_axis_km": 6722.179533389839,
      "eccentricity": 8.051e-05,
      "inclination_deg": 53.1565,
      "raan_deg": 292.1241,
      "arg_perigee_deg": 101.7769,
      "mean_anomaly_deg": 258.3341,
      "mean_motion_rev_day": 15.75206884
    },
    {
      "epoch": "2026-04-05T18:42:39.830688Z",
      "apogee_km": 344.5179637085939,
      "perigee_km": 343.07543673652526,
      "latitude_deg": -1.6245942083479296e-06,
      "longitude_deg": 172.33220829175121,
      "height_km": 344.01525338549425,
      "semi_major_axis_km": 6721.933700222559,
      "eccentricity": 0.0001073,
      "inclination_deg": 53.1571,
      "raan_deg": 287.0785,
      "arg_perigee_deg": 14.5821,
      "mean_anomaly_deg": 345.523,
      "mean_motion_rev_day": 15.75293297
    },
    {
      "epoch": "2026-04-05T21:45:22.891680Z",
      "apogee_km": 344.09780609731934,
      "perigee_km": 343.35409918024015,
      "latitude_deg": -8.688722443018581e-06,
      "longitude_deg": 125.89741619123055,
      "height_km": 344.35361675163006,
      "semi_major_axis_km": 6721.8629526387795,
      "eccentricity": 5.532e-05,
      "inclination_deg": 53.1571,
      "raan_deg": 286.4482,
      "arg_perigee_deg": 39.0391,
      "mean_anomaly_deg": 321.0669,
      "mean_motion_rev_day": 15.75318167
    },
    {
      "epoch": "2026-04-07T20:57:37.021824Z",
      "apogee_km": 344.1149733435359,
      "perigee_km": 343.4293386096251,
      "latitude_deg": -1.4425918880829185e-05,
      "longitude_deg": 126.12383479058903,
      "height_km": 344.93355276798803,
      "semi_major_axis_km": 6721.90915597658,
      "eccentricity": 5.1e-05,
      "inclination_deg": 53.1564,
      "raan_deg": 276.6721,
      "arg_perigee_deg": 135.6185,
      "mean_anomaly_deg": 224.4876,
      "mean_motion_rev_day": 15.75301925
    },
    {
      "epoch": "2026-04-08T15:14:15.019584Z",
      "apogee_km": 348.5217919683291,
      "perigee_km": 346.2079503045834,
      "latitude_deg": -1.353402568881346e-05,
      "longitude_deg": -152.56840969576996,
      "height_km": 348.18702286342943,
      "semi_major_axis_km": 6725.501871136456,
      "eccentricity": 0.00017202,
      "inclination_deg": 53.1566,
      "raan_deg": 272.8888,
      "arg_perigee_deg": 85.4409,
      "mean_anomaly_deg": 274.6807,
      "mean_motion_rev_day": 15.74039821
    }
  ]
}